{
  "type": "FeatureCollection",
  "features": [
    {
      "type": "Feature",
      "properties": {
        "norad_id": 26766,
        "name": "INTELSAT 10 (IS-10)",
        "group": "intelsat",
        "lat": 4.385390678351187,
        "lon": -149.3385353413339,
        "alt_km": 36111.77276932066,
        "timestamp": "2025-12-04T21:36:15.541854+00:00",
        "meta_object_name": "INTELSAT 10 (IS-10)",
        "meta_object_id": "2001-019A",
        "meta_epoch": "2025-12-03T11:53:38.525856",
        "meta_mean_motion": 0.99078102,
        "meta_eccentricity": 0.00077711,
        "meta_inclination": 8.6063,
        "meta_ra_of_asc_node": 61.2471,
        "meta_arg_of_pericenter": 218.7876,
        "meta_mean_anomaly": 149.4282,
        "meta_ephemeris_type": 0,
        "meta_classification_type": "U",
        "meta_norad_cat_id": 26766,
        "meta_element_set_no": 999,
        "meta_rev_at_epoch": 4364,
        "meta_bstar": 0,
        "meta_mean_motion_dot": -1.56e-06,
        "meta_mean_motion_ddot": 0,
        "tle_line1": "1 26766U 01019A   25337.49558479 -.00000156  00000+0  00000+0 0  9990",
        "tle_line2": "2 26766   8.6063  61.2471 0007771 218.7876 149.4282  0.99078102 43647"
      },
      "geometry": {
        "type": "Point",
        "coordinates": [
          -149.3385353413339,
          4.385390678351187
        ]
      }
    },
    {
      "type": "Feature",
      "properties": {
        "norad_id": 26900,
        "name": "INTELSAT 902 (IS-902)",
        "group": "intelsat",
        "lat": -5.609695796266503,
        "lon": -12.05131681221303,
        "alt_km": 35790.27397393423,
        "timestamp": "2025-12-04T21:36:15.541878+00:00",
        "meta_object_name": "INTELSAT 902 (IS-902)",
        "meta_object_id": "2001-039A",
        "meta_epoch": "2025-12-01T16:59:59.311968",
        "meta_mean_motion": 1.00270327,
        "meta_eccentricity": 0.00043097,
        "meta_inclination": 5.6187,
        "meta_ra_of_asc_node": 74.2002,
        "meta_arg_of_pericenter": 175.119,
        "meta_mean_anomaly": 26.3816,
        "meta_ephemeris_type": 0,
        "meta_classification_type": "U",
        "meta_norad_cat_id": 26900,
        "meta_element_set_no": 999,
        "meta_rev_at_epoch": 8871,
        "meta_bstar": 0,
        "meta_mean_motion_dot": -2.63e-06,
        "meta_mean_motion_ddot": 0,
        "tle_line1": "1 26900U 01039A   25335.70832537 -.00000263  00000+0  00000+0 0  9993",
        "tle_line2": "2 26900   5.6187  74.2002 0004309 175.1190  26.3816  1.00270327 88713"
      },
      "geometry": {
        "type": "Point",
        "coordinates": [
          -12.05131681221303,
          -5.609695796266503
        ]
      }
    },
    {
      "type": "Feature",
      "properties": {
        "norad_id": 27380,
        "name": "INTELSAT 904 (IS-904)",
        "group": "intelsat",
        "lat": -5.816564884753372,
        "lon": 6.671593960660325,
        "alt_km": 35787.58850082607,
        "timestamp": "2025-12-04T21:36:15.541894+00:00",
        "meta_object_name": "INTELSAT 904 (IS-904)",
        "meta_object_id": "2002-007A",
        "meta_epoch": "2025-12-04T11:51:49.344768",
        "meta_mean_motion": 1.0026902,
        "meta_eccentricity": 0.0001665,
        "meta_inclination": 6.4331,
        "meta_ra_of_asc_node": 71.5255,
        "meta_arg_of_pericenter": 205.7795,
        "meta_mean_anomaly": 302.7127,
        "meta_ephemeris_type": 0,
        "meta_classification_type": "U",
        "meta_norad_cat_id": 27380,
        "meta_element_set_no": 999,
        "meta_rev_at_epoch": 4981,
        "meta_bstar": 0,
        "meta_mean_motion_dot": -2.15e-06,
        "meta_mean_motion_ddot": 0,
        "tle_line1": "1 27380U 02007A   25338.49432112 -.00000215  00000+0  00000+0 0  9993",
        "tle_line2": "2 27380   6.4331  71.5255 0001665 205.7795 302.7127  1.00269020 49811"
      },
      "geometry": {
        "type": "Point",
        "coordinates": [
          6.671593960660325,
          -5.816564884753372
        ]
      }
    },
    {
      "type": "Feature",
      "properties": {
        "norad_id": 27426,
        "name": "DIRECTV 5 (TEMPO 1)",
        "group": "intelsat",
        "lat": -2.2197274844162154,
        "lon": -72.16290477165127,
        "alt_km": 35771.15429247531,
        "timestamp": "2025-12-04T21:36:15.541907+00:00",
        "meta_object_name": "DIRECTV 5 (TEMPO 1)",
        "meta_object_id": "2002-023A",
        "meta_epoch": "2025-12-04T09:56:32.682624",
        "meta_mean_motion": 1.00271251,
        "meta_eccentricity": 0.00038386,
        "meta_inclination": 4.3795,
        "meta_ra_of_asc_node": 77.7499,
        "meta_arg_of_pericenter": 191.2769,
        "meta_mean_anomaly": 203.4731,
        "meta_ephemeris_type": 0,
        "meta_classification_type": "U",
        "meta_norad_cat_id": 27426,
        "meta_element_set_no": 999,
        "meta_rev_at_epoch": 8617,
        "meta_bstar": 0,
        "meta_mean_motion_dot": -4.4e-07,
        "meta_mean_motion_ddot": 0,
        "tle_line1": "1 27426U 02023A   25338.41426716 -.00000044  00000+0  00000+0 0  9997",
        "tle_line2": "2 27426   4.3795  77.7499 0003838 191.2769 203.4731  1.00271251 86172"
      },
      "geometry": {
        "type": "Point",
        "coordinates": [
          -72.16290477165127,
          -2.2197274844162154
        ]
      }
    },
    {
      "type": "Feature",
      "properties": {
        "norad_id": 27438,
        "name": "INTELSAT 905 (IS-905)",
        "group": "intelsat",
        "lat": -0.9721522184925186,
        "lon": -99.20481774749756,
        "alt_km": 35772.385883758965,
        "timestamp": "2025-12-04T21:36:15.541919+00:00",
        "meta_object_name": "INTELSAT 905 (IS-905)",
        "meta_object_id": "2002-027A",
        "meta_epoch": "2025-12-03T09:40:44.149728",
        "meta_mean_motion": 1.00273288,
        "meta_eccentricity": 0.00031296,
        "meta_inclination": 6.2606,
        "meta_ra_of_asc_node": 72.1621,
        "meta_arg_of_pericenter": 189.1417,
        "meta_mean_anomaly": 179.1858,
        "meta_ephemeris_type": 0,
        "meta_classification_type": "U",
        "meta_norad_cat_id": 27438,
        "meta_element_set_no": 999,
        "meta_rev_at_epoch": 4940,
        "meta_bstar": 0,
        "meta_mean_motion_dot": 1.09e-06,
        "meta_mean_motion_ddot": 0,
        "tle_line1": "1 27438U 02027A   25337.40328877  .00000109  00000+0  00000+0 0  9992",
        "tle_line2": "2 27438   6.2606  72.1621 0003129 189.1417 179.1858  1.00273288 49408"
      },
      "geometry": {
        "type": "Point",
        "coordinates": [
          -99.20481774749756,
          -0.9721522184925186
        ]
      }
    },
    {
      "type": "Feature",
      "properties": {
        "norad_id": 27445,
        "name": "GALAXY 3C (G-3C)",
        "group": "intelsat",
        "lat": -2.2075151868689096,
        "lon": -56.87585470788931,
        "alt_km": 35789.59904984034,
        "timestamp": "2025-12-04T21:36:15.541932+00:00",
        "meta_object_name": "GALAXY 3C (G-3C)",
        "meta_object_id": "2002-030A",
        "meta_epoch": "2025-12-04T13:16:29.706240",
        "meta_mean_motion": 1.00270508,
        "meta_eccentricity": 0.00012858,
        "meta_inclination": 3.2425,
        "meta_ra_of_asc_node": 80.5894,
        "meta_arg_of_pericenter": 100.4367,
        "meta_mean_anomaly": 356.8628,
        "meta_ephemeris_type": 0,
        "meta_classification_type": "U",
        "meta_norad_cat_id": 27445,
        "meta_element_set_no": 999,
        "meta_rev_at_epoch": 4454,
        "meta_bstar": 0,
        "meta_mean_motion_dot": -1.39e-06,
        "meta_mean_motion_ddot": 0,
        "tle_line1": "1 27445U 02030A   25338.55312160 -.00000139  00000+0  00000+0 0  9993",
        "tle_line2": "2 27445   3.2425  80.5894 0001285 100.4367 356.8628  1.00270508 44549"
      },
      "geometry": {
        "type": "Point",
        "coordinates": [
          -56.87585470788931,
          -2.2075151868689096
        ]
      }
    },
    {
      "type": "Feature",
      "properties": {
        "norad_id": 27513,
        "name": "INTELSAT 906 (IS-906)",
        "group": "intelsat",
        "lat": 2.415194964795816,
        "lon": 102.04910141814797,
        "alt_km": 35810.44975819955,
        "timestamp": "2025-12-04T21:36:15.541944+00:00",
        "meta_object_name": "INTELSAT 906 (IS-906)",
        "meta_object_id": "2002-041A",
        "meta_epoch": "2025-12-04T05:28:17.651712",
        "meta_mean_motion": 1.002733,
        "meta_eccentricity": 0.00061181,
        "meta_inclination": 5.3074,
        "meta_ra_of_asc_node": 75.3323,
        "meta_arg_of_pericenter": 192.8955,
        "meta_mean_anomaly": 311.2929,
        "meta_ephemeris_type": 0,
        "meta_classification_type": "U",
        "meta_norad_cat_id": 27513,
        "meta_element_set_no": 999,
        "meta_rev_at_epoch": 8507,
        "meta_bstar": 0,
        "meta_mean_motion_dot": 2.5e-07,
        "meta_mean_motion_ddot": 0,
        "tle_line1": "1 27513U 02041A   25338.22798208  .00000025  00000+0  00000+0 0  9999",
        "tle_line2": "2 27513   5.3074  75.3323 0006118 192.8955 311.2929  1.00273300 85070"
      },
      "geometry": {
        "type": "Point",
        "coordinates": [
          102.04910141814797,
          2.415194964795816
        ]
      }
    }
  ]
}